[{"OBJECT_NAME":"KUIPER-00042","OBJECT_ID":"2025-134D","EPOCH":"2026-03-09T21:22:19.187904","MEAN_MOTION":14.79992104,"ECCENTRICITY":0.00070968,"INCLINATION":51.8988,"RA_OF_ASC_NODE":240.7018,"ARG_OF_PERICENTER":281.3124,"MEAN_ANOMALY":78.7041,"EPHEMERIS_TYPE":0,"CLASSIFICATION_TYPE":"U","NORAD_CAT_ID":64503,"ELEMENT_SET_NO":999,"REV_AT_EPOCH":3998,"BSTAR":0.00061477157,"MEAN_MOTION_DOT":4.475e-5,"MEAN_MOTION_DDOT":0},{"OBJECT_NAME":"FENGYUN 1C DEB","OBJECT_ID":"1999-025BZE","EPOCH":"2026-03-09T10:10:19.409664","MEAN_MOTION":14.66101352,"ECCENTRICITY":0.01121502,"INCLINATION":98.9608,"RA_OF_ASC_NODE":234.6887,"ARG_OF_PERICENTER":171.648,"MEAN_ANOMALY":188.6623,"EPHEMERIS_TYPE":0,"CLASSIFICATION_TYPE":"U","NORAD_CAT_ID":31563,"ELEMENT_SET_NO":999,"REV_AT_EPOCH":99814,"BSTAR":0.0011242552,"MEAN_MOTION_DOT":6.722e-5,"MEAN_MOTION_DDOT":0}]
